IRIDIUM 921             
1 24873U 97034E   24336.88439900  .00145918  00000+0  14003-2 0  9993
2 24873  86.3732 203.7830 0003760  50.1496 310.0103 15.66158911501141
IRIDIUM 26              
1 24903U 97043A   24336.84580059  .00001167  00000+0  38872-3 0  9993
2 24903  86.3992 193.4279 0002142  80.0655 280.0784 14.36826571428405
IRIDIUM 22              
1 24907U 97043E   24336.96324469  .00000996  00000+0  33860-3 0  9992
2 24907  86.3997 196.7451 0001970  85.0807 275.0614 14.35674789428467
DUMMY MASS 1            
1 24925U 97048A   24336.95521001  .00001213  00000+0  13351-3 0  9993
2 24925  86.3373 226.4354 0008757 115.8709 244.3420 14.86652708475820
DUMMY MASS 2            
1 24926U 97048B   24336.95195907  .00001208  00000+0  13365-3 0  9995
2 24926  86.3371 228.0081 0009281 125.7017 234.5072 14.86407524475603
IRIDIUM 29              
1 24944U 97051A   24336.77413136  .00001187  00000+0  40097-3 0  9994
2 24944  86.3983 226.6144 0002065  88.6184 271.5250 14.36138550424935
IRIDIUM 33              
1 24946U 97051C   24336.96420490  .00000804  00000+0  27738-3 0  9990
2 24946  86.3900 225.7826 0008458  16.2659 343.8807 14.34670732424469
IRIDIUM 28              
1 24948U 97051E   24336.94555950  .00001097  00000+0  36323-3 0  9995
2 24948  86.3990 224.1714 0002287  71.8387 288.3059 14.37086435425511
